NORAD_CAT_ID,OBJECT_NAME,OBJECT_TYPE,EPOCH,MEAN_MOTION,ECCENTRICITY,INCLINATION,RA_OF_ASC_NODE,ARG_OF_PERICENTER,MEAN_ANOMALY,BSTAR,MEAN_MOTION_DOT,MEAN_MOTION_DDOT,TLE_LINE0,TLE_LINE1,TLE_LINE2,SEMIMAJOR_AXIS,PERIOD,APOGEE,PERIGEE,DECAYED
53149.0,STARLINK-4021,PAYLOAD,2023-11-01 12:35:11,15.08857583,0.0001472,53.2167,61.2656,95.7147,264.4013,0.0010694,0.00016781,0.0,0 STARLINK-4021,1 53149U 22083T   23305.52443878  .00016781  00000-0  10694-2 0  9996,2 53149  53.2167  61.2656 0001472  95.7147 264.4013 15.08857583 72280,6917.827,95.436,540.71,538.673,0.0
53149.0,STARLINK-4021,PAYLOAD,2023-11-01 14:10:34,15.08863384,0.0001444,53.2165,60.9681,92.3614,267.7544,0.00082345,0.0001285,0.0,0 STARLINK-4021,1 53149U 22083T   23305.59067719  .00012850  00000-0  82345-3 0  9995,2 53149  53.2165  60.9681 0001444  92.3614 267.7544 15.08863384 71665,6917.809,95.436,540.673,538.675,0.0
53149.0,STARLINK-4021,PAYLOAD,2023-11-02 01:18:16,15.08862407,0.0001497,53.2172,58.8874,86.4607,273.6556,0.0012318,0.00019382,0.0,0 STARLINK-4021,1 53149U 22083T   23306.05435630  .00019382  00000-0  12318-2 0  9997,2 53149  53.2172  58.8874 0001497  86.4607 273.6556 15.08862407 72369,6917.812,95.436,540.712,538.641,0.0
53149.0,STARLINK-4021,PAYLOAD,2023-11-02 12:25:58,15.08849449,0.0001399,53.2174,56.8058,98.7822,261.3328,0.0016111,0.00025452,0.0,0 STARLINK-4021,1 53149U 22083T   23306.51803693  .00025452  00000-0  16111-2 0  9996,2 53149  53.2174  56.8058 0001399  98.7822 261.3328 15.08849449 72439,6917.852,95.437,540.684,538.749,0.0
53149.0,STARLINK-4021,PAYLOAD,2023-11-02 14:01:21,15.08850158,0.0001435,53.2174,56.5085,96.7899,263.3257,0.0017425,0.0002756,0.0,0 STARLINK-4021,1 53149U 22083T   23306.58427694  .00027560  00000-0  17425-2 0  9997,2 53149  53.2174  56.5085 0001435  96.7899 263.3257 15.08850158 71812,6917.849,95.437,540.707,538.722,0.0
53149.0,STARLINK-4021,PAYLOAD,2023-11-03 10:41:22,15.08853669,0.000141,53.2173,52.6434,83.42,276.6953,0.0014779,0.0002332,0.0,0 STARLINK-4021,1 53149U 22083T   23307.44540108  .00023320  00000-0  14779-2 0  9998,2 53149  53.2173  52.6434 0001410  83.4200 276.6953 15.08853669 72572,6917.839,95.437,540.679,538.728,0.0
53149.0,STARLINK-4021,PAYLOAD,2023-11-03 13:52:08,15.08853635,0.0001407,53.2172,52.0493,74.5979,285.5168,0.0013303,0.00020955,0.0,0 STARLINK-4021,1 53149U 22083T   23307.57788085  .00020955  00000-0  13303-2 0  9993,2 53149  53.2172  52.0493 0001407  74.5979 285.5168 15.08853635 71962,6917.839,95.437,540.677,538.73,0.0
53149.0,STARLINK-4021,PAYLOAD,2023-11-04 10:32:09,15.08852129,0.0001397,53.2188,48.1825,91.9867,268.1285,0.0011642,0.00018295,0.0,0 STARLINK-4021,1 53149U 22083T   23308.43900168  .00018295  00000-0  11642-2 0  9995,2 53149  53.2188  48.1825 0001397  91.9867 268.1285 15.08852129 72720,6917.843,95.437,540.675,538.742,0.0
53149.0,STARLINK-4021,PAYLOAD,2023-11-04 13:42:55,15.0885485,0.0001287,53.2181,47.5882,85.6332,274.4807,0.0012959,0.00020405,0.0,0 STARLINK-4021,1 53149U 22083T   23308.57148095  .00020405  00000-0  12959-2 0  9991,2 53149  53.2181  47.5882 0001287  85.6332 274.4807 15.08854850 72110,6917.835,95.437,540.59,538.81,0.0
53149.0,STARLINK-4021,PAYLOAD,2023-11-05 11:58:19,15.08869482,0.0001419,53.2185,43.424,88.2094,271.9061,0.0016488,0.00026071,0.0,0 STARLINK-4021,1 53149U 22083T   23309.49883620  .00026071  00000-0  16488-2 0  9999,2 53149  53.2185  43.4240 0001419  88.2094 271.9061 15.08869482 72883,6917.79,95.436,540.637,538.674,0.0
53149.0,STARLINK-4021,PAYLOAD,2023-11-05 13:33:42,15.08875126,0.0001443,53.2185,43.1277,72.9459,287.1691,0.0016105,0.00025461,0.0,0 STARLINK-4021,1 53149U 22083T   23309.56507445  .00025461  00000-0  16105-2 0  9993,2 53149  53.2185  43.1277 0001443  72.9459 287.1691 15.08875126 72264,6917.773,95.435,540.636,538.64,0.0
53149.0,STARLINK-4021,PAYLOAD,2023-11-06 10:13:42,15.08879235,0.0001329,53.2172,39.262,76.5719,283.5421,0.00233,0.00037029,0.0,0 STARLINK-4021,1 53149U 22083T   23310.42618156  .00037029  00000-0  23300-2 0  9990,2 53149  53.2172  39.2620 0001329  76.5719 283.5421 15.08879235 73021,6917.76,95.435,540.545,538.706,0.0
53149.0,STARLINK-4021,PAYLOAD,2023-11-06 13:24:29,15.08801384,0.0002029,53.2171,38.6669,67.3004,292.8203,-0.0015511,-0.00024864,0.0,0 STARLINK-4021,1 53149U 22083T   23310.55867705 -.00024864  00000-0 -15511-2 0  9990,2 53149  53.2171  38.6669 0002029  67.3004 292.8203 15.08801384 72412,6917.998,95.44,541.267,538.46,0.0
53149.0,STARLINK-4021,PAYLOAD,2023-11-07 11:39:56,15.08830821,0.0001896,53.2182,34.5036,121.7925,238.3252,0.0036864,0.00058857,0.0,0 STARLINK-4021,1 53149U 22083T   23311.48606827  .00058857  00000-0  36864-2 0  9990,2 53149  53.2182  34.5036 0001896 121.7925 238.3252 15.08830821 73187,6917.908,95.438,541.085,538.462,0.0
53149.0,STARLINK-4021,PAYLOAD,2023-11-07 13:15:19,15.08824846,0.0001804,53.2181,34.2068,77.2652,282.8542,0.002391,0.00037954,0.0,0 STARLINK-4021,1 53149U 22083T   23311.55231082  .00037954  00000-0  23910-2 0  9998,2 53149  53.2181  34.2068 0001804  77.2652 282.8542 15.08824846 72566,6917.927,95.439,541.04,538.544,0.0
53149.0,STARLINK-4021,PAYLOAD,2023-11-07 22:47:38,15.08848178,0.0001692,53.2177,32.4252,87.3068,272.8117,0.00076732,0.00011948,0.0,0 STARLINK-4021,1 53149U 22083T   23311.94975020  .00011948  00000-0  76732-3 0  9994,2 53149  53.2177  32.4252 0001692  87.3068 272.8117 15.08848178 73252,6917.855,95.437,540.891,538.55,0.0
53149.0,STARLINK-4021,PAYLOAD,2023-11-08 13:06:06,15.08859616,0.0001681,53.2173,29.7458,95.6716,264.4467,0.00089164,0.00013939,0.0,0 STARLINK-4021,1 53149U 22083T   23312.54590522  .00013939  00000-0  89164-3 0  9996,2 53149  53.2173  29.7458 0001681  95.6716 264.4467 15.08859616 72719,6917.82,95.436,540.848,538.523,0.0
53149.0,STARLINK-4021,PAYLOAD,2023-11-08 22:38:24,15.08853072,0.0001667,53.2181,27.9675,68.7724,291.3446,0.00056465,8.713e-05,0.0,0 STARLINK-4021,1 53149U 22083T   23312.94334209  .00008713  00000-0  56465-3 0  9990,2 53149  53.2181  27.9675 0001667  68.7724 291.3446 15.08853072 72775,6917.84,95.437,540.859,538.552,0.0
53149.0,STARLINK-4021,PAYLOAD,2023-11-09 11:21:29,15.08856251,0.0001977,53.2186,25.5885,71.0351,289.0855,0.00026373,3.913e-05,0.0,0 STARLINK-4021,1 53149U 22083T   23313.47325932  .00003913  00000-0  26373-3 0  9994,2 53149  53.2186  25.5885 0001977  71.0351 289.0855 15.08856251 73483,6917.831,95.437,541.063,538.328,0.0
53149.0,STARLINK-4021,PAYLOAD,2023-11-10 11:12:16,15.08848296,0.0001147,53.2192,21.1269,92.1965,267.9158,9.4264e-05,1.213e-05,0.0,0 STARLINK-4021,1 53149U 22083T   23314.46685373  .00001213  00000-0  94264-4 0  9998,2 53149  53.2192  21.1269 0001147  92.1965 267.9158 15.08848296 73630,6917.855,95.437,540.514,538.927,0.0
53149.0,STARLINK-4021,PAYLOAD,2023-11-11 11:03:02,15.08850293,0.0001557,53.2183,16.6598,94.5504,265.5666,5.1071e-05,5.25e-06,0.0,0 STARLINK-4021,1 53149U 22083T   23315.46045020  .00000525  00000-0  51071-4 0  9992,2 53149  53.2183  16.6598 0001557  94.5504 265.5666 15.08850293 73159,6917.849,95.437,540.791,538.637,0.0
53149.0,STARLINK-4021,PAYLOAD,2023-11-12 10:53:50,15.0883888,0.0001589,53.2189,12.2052,93.9824,266.135,9.8355e-05,1.278e-05,0.0,0 STARLINK-4021,1 53149U 22083T   23316.45405570  .00001278  00000-0  98355-4 0  9994,2 53149  53.2189  12.2052 0001589  93.9824 266.1350 15.08838880 73936,6917.884,95.438,540.848,538.65,0.0
53149.0,STARLINK-4021,PAYLOAD,2023-11-12 20:26:08,15.08844359,0.0001492,53.2188,10.4207,90.1106,270.0058,4.1957e-07,-2.81e-06,0.0,0 STARLINK-4021,1 53149U 22083T   23316.85149280 -.00000281  00000-0  41957-6 0  9993,2 53149  53.2188  10.4207 0001492  90.1106 270.0058 15.08844359 73366,6917.867,95.437,540.764,538.7,0.0
53149.0,STARLINK-4021,PAYLOAD,2023-11-13 10:44:36,15.08849774,0.0001458,53.2181,7.7442,94.4054,265.7104,0.00019248,2.777e-05,0.0,0 STARLINK-4021,1 53149U 22083T   23317.44764669  .00002777  00000-0  19248-3 0  9999,2 53149  53.2181   7.7442 0001458  94.4054 265.7104 15.08849774 74089,6917.851,95.437,540.724,538.707,0.0
53149.0,STARLINK-4021,PAYLOAD,2023-11-13 12:19:59,15.08854137,0.0001571,53.2179,7.4466,92.5502,267.567,0.00025201,3.727e-05,0.0,0 STARLINK-4021,1 53149U 22083T   23317.51388525  .00003727  00000-0  25201-3 0  9992,2 53149  53.2179   7.4466 0001571  92.5502 267.5670 15.08854137 73460,6917.837,95.437,540.789,538.615,0.0
53149.0,STARLINK-4021,PAYLOAD,2023-11-13 20:16:55,15.08840511,0.0001754,53.2171,5.9572,86.1272,273.992,5.5164e-05,5.9e-06,0.0,0 STARLINK-4021,1 53149U 22083T   23317.84509174  .00000590  00000-0  55164-4 0  9990,2 53149  53.2171   5.9572 0001754  86.1272 273.9920 15.08840511 73515,6917.879,95.438,540.957,538.53,0.0
53149.0,STARLINK-4021,PAYLOAD,2023-11-14 02:38:28,15.08840056,0.0001666,53.2167,4.7706,92.1007,268.0176,5.2149e-05,5.42e-06,0.0,0 STARLINK-4021,1 53149U 22083T   23318.11005232  .00000542  00000-0  52149-4 0  9994,2 53149  53.2167   4.7706 0001666  92.1007 268.0176 15.08840056 74187,6917.88,95.438,540.898,538.593,0.0
53149.0,STARLINK-4021,PAYLOAD,2023-11-14 10:35:24,15.08839145,0.0001623,53.2176,3.2843,94.3143,265.8034,2.7409e-05,1.48e-06,0.0,0 STARLINK-4021,1 53149U 22083T   23318.44125282  .00000148  00000-0  27409-4 0  9991,2 53149  53.2176   3.2843 0001623  94.3143 265.8034 15.08839145 73602,6917.883,95.438,540.871,538.625,0.0
53149.0,STARLINK-4021,PAYLOAD,2023-11-14 20:07:42,15.08842078,0.0001589,53.2167,1.4985,86.228,273.8894,5.914e-05,6.53e-06,0.0,0 STARLINK-4021,1 53149U 22083T   23318.83869173  .00000653  00000-0  59140-4 0  9996,2 53149  53.2167   1.4985 0001589  86.2280 273.8894 15.08842078 73660,6917.874,95.437,540.838,538.64,0.0
53149.0,STARLINK-4021,PAYLOAD,2023-11-15 10:26:11,15.08840531,0.0001708,53.2178,358.8218,84.6778,275.4409,-5.6916e-05,-1.194e-05,0.0,0 STARLINK-4021,1 53149U 22083T   23319.43485376 -.00001194  00000-0 -56916-4 0  9993,2 53149  53.2178 358.8218 0001708  84.6778 275.4409 15.08840531 74389,6917.879,95.438,540.925,538.562,0.0
